[{"OBJECT_NAME":"OBJECT C","OBJECT_ID":"2023-104C","EPOCH":"2026-03-09T22:39:44.230752","MEAN_MOTION":15.26846312,"ECCENTRICITY":0.00113074,"INCLINATION":97.273,"RA_OF_ASC_NODE":135.3333,"ARG_OF_PERICENTER":3.876,"MEAN_ANOMALY":356.2565,"EPHEMERIS_TYPE":0,"CLASSIFICATION_TYPE":"U","NORAD_CAT_ID":57426,"ELEMENT_SET_NO":999,"REV_AT_EPOCH":14663,"BSTAR":0.00062618506,"MEAN_MOTION_DOT":0.00016495,"MEAN_MOTION_DDOT":0},{"OBJECT_NAME":"STARLINK-30279","OBJECT_ID":"2023-144X","EPOCH":"2026-03-09T00:00:04.000320","MEAN_MOTION":15.26701549,"ECCENTRICITY":0.00014879,"INCLINATION":43,"RA_OF_ASC_NODE":288.715,"ARG_OF_PERICENTER":259.326,"MEAN_ANOMALY":199.1729,"EPHEMERIS_TYPE":0,"CLASSIFICATION_TYPE":"U","NORAD_CAT_ID":57885,"ELEMENT_SET_NO":999,"REV_AT_EPOCH":578,"BSTAR":0.0021326377,"MEAN_MOTION_DOT":0.00057324,"MEAN_MOTION_DDOT":0}]
